[{"OBJECT_NAME":"ION SCV-015","OBJECT_ID":"2023-185H","EPOCH":"2026-03-09T22:36:51.209568","MEAN_MOTION":15.3163624,"ECCENTRICITY":0.00109059,"INCLINATION":97.5772,"RA_OF_ASC_NODE":155.3582,"ARG_OF_PERICENTER":92.3805,"MEAN_ANOMALY":267.8685,"EPHEMERIS_TYPE":0,"CLASSIFICATION_TYPE":"U","NORAD_CAT_ID":58469,"ELEMENT_SET_NO":999,"REV_AT_EPOCH":12588,"BSTAR":0.00030895808,"MEAN_MOTION_DOT":9.376e-5,"MEAN_MOTION_DDOT":0},{"OBJECT_NAME":"STARLINK-31456","OBJECT_ID":"2024-036K","EPOCH":"2026-03-09T08:22:24.721536","MEAN_MOTION":15.30196649,"ECCENTRICITY":0.00011622,"INCLINATION":53.1606,"RA_OF_ASC_NODE":79.5262,"ARG_OF_PERICENTER":80.438,"MEAN_ANOMALY":279.6752,"EPHEMERIS_TYPE":0,"CLASSIFICATION_TYPE":"U","NORAD_CAT_ID":59007,"ELEMENT_SET_NO":999,"REV_AT_EPOCH":11527,"BSTAR":-5.9411838e-5,"MEAN_MOTION_DOT":-2.118e-5,"MEAN_MOTION_DDOT":0}]
